STARLINK-36178          
1 67025U 25293Y   25359.25004630 -.01589100  00000+0 -11062-1 0  9991
2 67025  69.9920 287.5283 0003722 270.0897  84.6049 15.77210168  2235
STARLINK-36176          
1 67026U 25293Z   25359.25004630 -.01591307  00000+0 -11100-1 0  9997
2 67026  69.9917 287.5224 0003605 276.1854  83.3454 15.77170004  2237
STARLINK-36171          
1 67027U 25293AA  25359.25004630 -.01592054  00000+0 -11101-1 0  9999
2 67027  69.9915 287.5253 0003561 271.7664  85.6041 15.77181951  2239
STARLINK-36132          
1 67028U 25293AB  25359.25004630 -.01590599  00000+0 -11115-1 0  9997
2 67028  69.9920 287.5169 0003718 276.0373  88.3605 15.77127877  2234
STARLINK-36190          
1 67029U 25293AC  25359.25004630 -.01593876  00000+0 -11127-1 0  9992
2 67029  69.9921 287.5203 0003597 274.0786  87.6978 15.77157725  2236
STARLINK-36138          
1 67030U 25294A   25359.25004630 -.01931396  00000+0 -16794-1 0  9993
2 67030  42.9992 105.7058 0001393 267.0625   9.0309 15.71109941  2127
STARLINK-36150          
1 67031U 25294B   25359.25004630 -.01932554  00000+0 -16801-1 0  9990
2 67031  42.9993 105.7010 0001482 269.4045   8.5063 15.71116058  2317
STARLINK-36131          
1 67032U 25294C   25359.25004630 -.01923425  00000+0 -16724-1 0  9992
2 67032  42.9992 105.6906 0001463 262.6313  19.3663 15.71098472  2126
STARLINK-36137          
1 67033U 25294D   25359.25004630 -.01922042  00000+0 -16706-1 0  9997
2 67033  42.9991 105.6960 0001471 267.4384  12.5055 15.71103472  2123
STARLINK-36140          
1 67034U 25294E   25359.25004630 -.01925391  00000+0 -16754-1 0  9991
2 67034  42.9991 105.6854 0001440 266.5589  17.5953 15.71083513  2124
STARLINK-36085          
1 67035U 25294F   25359.25004630 -.01926240  00000+0 -16781-1 0  9996
2 67035  42.9991 105.6744 0001410 263.7887  24.6988 15.71057596  2129
STARLINK-36125          
1 67036U 25294G   25359.25004630 -.01930179  00000+0 -16808-1 0  9993
2 67036  42.9989 105.6800 0001425 265.9221  20.3938 15.71073880  2315
