CCSDS_OMM_VERS = 2.0
CREATION_DATE  = 
ORIGINATOR     = 

OBJECT_NAME    = STARLINK-36178
OBJECT_ID      = 2025-293Y
CENTER_NAME    = EARTH
REF_FRAME      = TEME
TIME_SYSTEM    = UTC
MEAN_ELEMENT_THEORY = SGP/SGP4

EPOCH          = 2025-12-25T06:00:04.000320
MEAN_MOTION    = 15.77210168
ECCENTRICITY   = .0003722
INCLINATION    = 69.9920
RA_OF_ASC_NODE = 287.5283
ARG_OF_PERICENTER = 270.0897
MEAN_ANOMALY   = 84.6049

EPHEMERIS_TYPE = 0
CLASSIFICATION_TYPE = U
NORAD_CAT_ID   = 67025
ELEMENT_SET_NO = 999
REV_AT_EPOCH   = 223
BSTAR          = -.11061947E-1
MEAN_MOTION_DOT = -.15891E-1
MEAN_MOTION_DDOT = 0

CCSDS_OMM_VERS = 2.0
CREATION_DATE  = 
ORIGINATOR     = 

OBJECT_NAME    = STARLINK-36176
OBJECT_ID      = 2025-293Z
CENTER_NAME    = EARTH
REF_FRAME      = TEME
TIME_SYSTEM    = UTC
MEAN_ELEMENT_THEORY = SGP/SGP4

EPOCH          = 2025-12-25T06:00:04.000320
MEAN_MOTION    = 15.77170004
ECCENTRICITY   = .00036056
INCLINATION    = 69.9917
RA_OF_ASC_NODE = 287.5224
ARG_OF_PERICENTER = 276.1854
MEAN_ANOMALY   = 83.3454

EPHEMERIS_TYPE = 0
CLASSIFICATION_TYPE = U
NORAD_CAT_ID   = 67026
ELEMENT_SET_NO = 999
REV_AT_EPOCH   = 223
BSTAR          = -.11100433E-1
MEAN_MOTION_DOT = -.1591307E-1
MEAN_MOTION_DDOT = 0

CCSDS_OMM_VERS = 2.0
CREATION_DATE  = 
ORIGINATOR     = 

OBJECT_NAME    = STARLINK-36171
OBJECT_ID      = 2025-293AA
CENTER_NAME    = EARTH
REF_FRAME      = TEME
TIME_SYSTEM    = UTC
MEAN_ELEMENT_THEORY = SGP/SGP4

EPOCH          = 2025-12-25T06:00:04.000320
MEAN_MOTION    = 15.77181951
ECCENTRICITY   = .0003561
INCLINATION    = 69.9915
RA_OF_ASC_NODE = 287.5253
ARG_OF_PERICENTER = 271.7664
MEAN_ANOMALY   = 85.6041

EPHEMERIS_TYPE = 0
CLASSIFICATION_TYPE = U
NORAD_CAT_ID   = 67027
ELEMENT_SET_NO = 999
REV_AT_EPOCH   = 223
BSTAR          = -.11100817E-1
MEAN_MOTION_DOT = -.1592054E-1
MEAN_MOTION_DDOT = 0

CCSDS_OMM_VERS = 2.0
CREATION_DATE  = 
ORIGINATOR     = 

OBJECT_NAME    = STARLINK-36132
OBJECT_ID      = 2025-293AB
CENTER_NAME    = EARTH
REF_FRAME      = TEME
TIME_SYSTEM    = UTC
MEAN_ELEMENT_THEORY = SGP/SGP4

EPOCH          = 2025-12-25T06:00:04.000320
MEAN_MOTION    = 15.77127877
ECCENTRICITY   = .00037186
INCLINATION    = 69.9920
RA_OF_ASC_NODE = 287.5169
ARG_OF_PERICENTER = 276.0373
MEAN_ANOMALY   = 88.3605

EPHEMERIS_TYPE = 0
CLASSIFICATION_TYPE = U
NORAD_CAT_ID   = 67028
ELEMENT_SET_NO = 999
REV_AT_EPOCH   = 223
BSTAR          = -.11114849E-1
MEAN_MOTION_DOT = -.1590599E-1
MEAN_MOTION_DDOT = 0

CCSDS_OMM_VERS = 2.0
CREATION_DATE  = 
ORIGINATOR     = 

OBJECT_NAME    = STARLINK-36190
OBJECT_ID      = 2025-293AC
CENTER_NAME    = EARTH
REF_FRAME      = TEME
TIME_SYSTEM    = UTC
MEAN_ELEMENT_THEORY = SGP/SGP4

EPOCH          = 2025-12-25T06:00:04.000320
MEAN_MOTION    = 15.77157725
ECCENTRICITY   = .00035972
INCLINATION    = 69.9921
RA_OF_ASC_NODE = 287.5203
ARG_OF_PERICENTER = 274.0786
MEAN_ANOMALY   = 87.6978

EPHEMERIS_TYPE = 0
CLASSIFICATION_TYPE = U
NORAD_CAT_ID   = 67029
ELEMENT_SET_NO = 999
REV_AT_EPOCH   = 223
BSTAR          = -.11127186E-1
MEAN_MOTION_DOT = -.1593876E-1
MEAN_MOTION_DDOT = 0

CCSDS_OMM_VERS = 2.0
CREATION_DATE  = 
ORIGINATOR     = 

OBJECT_NAME    = STARLINK-36138
OBJECT_ID      = 2025-294A
CENTER_NAME    = EARTH
REF_FRAME      = TEME
TIME_SYSTEM    = UTC
MEAN_ELEMENT_THEORY = SGP/SGP4

EPOCH          = 2025-12-25T06:00:04.000320
MEAN_MOTION    = 15.71109941
ECCENTRICITY   = .00013939
INCLINATION    = 42.9992
RA_OF_ASC_NODE = 105.7058
ARG_OF_PERICENTER = 267.0625
MEAN_ANOMALY   = 9.0309

EPHEMERIS_TYPE = 0
CLASSIFICATION_TYPE = U
NORAD_CAT_ID   = 67030
ELEMENT_SET_NO = 999
REV_AT_EPOCH   = 212
BSTAR          = -.16794183E-1
MEAN_MOTION_DOT = -.1931396E-1
MEAN_MOTION_DDOT = 0

CCSDS_OMM_VERS = 2.0
CREATION_DATE  = 
ORIGINATOR     = 

OBJECT_NAME    = STARLINK-36150
OBJECT_ID      = 2025-294B
CENTER_NAME    = EARTH
REF_FRAME      = TEME
TIME_SYSTEM    = UTC
MEAN_ELEMENT_THEORY = SGP/SGP4

EPOCH          = 2025-12-25T06:00:04.000320
MEAN_MOTION    = 15.71116058
ECCENTRICITY   = .00014822
INCLINATION    = 42.9993
RA_OF_ASC_NODE = 105.7010
ARG_OF_PERICENTER = 269.4045
MEAN_ANOMALY   = 8.5063

EPHEMERIS_TYPE = 0
CLASSIFICATION_TYPE = U
NORAD_CAT_ID   = 67031
ELEMENT_SET_NO = 999
REV_AT_EPOCH   = 231
BSTAR          = -.16800518E-1
MEAN_MOTION_DOT = -.1932554E-1
MEAN_MOTION_DDOT = 0

CCSDS_OMM_VERS = 2.0
CREATION_DATE  = 
ORIGINATOR     = 

OBJECT_NAME    = STARLINK-36131
OBJECT_ID      = 2025-294C
CENTER_NAME    = EARTH
REF_FRAME      = TEME
TIME_SYSTEM    = UTC
MEAN_ELEMENT_THEORY = SGP/SGP4

EPOCH          = 2025-12-25T06:00:04.000320
MEAN_MOTION    = 15.71098472
ECCENTRICITY   = .0001463
INCLINATION    = 42.9992
RA_OF_ASC_NODE = 105.6906
ARG_OF_PERICENTER = 262.6313
MEAN_ANOMALY   = 19.3663

EPHEMERIS_TYPE = 0
CLASSIFICATION_TYPE = U
NORAD_CAT_ID   = 67032
ELEMENT_SET_NO = 999
REV_AT_EPOCH   = 212
BSTAR          = -.16723608E-1
MEAN_MOTION_DOT = -.1923425E-1
MEAN_MOTION_DDOT = 0

CCSDS_OMM_VERS = 2.0
CREATION_DATE  = 
ORIGINATOR     = 

OBJECT_NAME    = STARLINK-36137
OBJECT_ID      = 2025-294D
CENTER_NAME    = EARTH
REF_FRAME      = TEME
TIME_SYSTEM    = UTC
MEAN_ELEMENT_THEORY = SGP/SGP4

EPOCH          = 2025-12-25T06:00:04.000320
MEAN_MOTION    = 15.71103472
ECCENTRICITY   = .00014711
INCLINATION    = 42.9991
RA_OF_ASC_NODE = 105.6960
ARG_OF_PERICENTER = 267.4384
MEAN_ANOMALY   = 12.5055

EPHEMERIS_TYPE = 0
CLASSIFICATION_TYPE = U
NORAD_CAT_ID   = 67033
ELEMENT_SET_NO = 999
REV_AT_EPOCH   = 212
BSTAR          = -.1670642E-1
MEAN_MOTION_DOT = -.1922042E-1
MEAN_MOTION_DDOT = 0

CCSDS_OMM_VERS = 2.0
CREATION_DATE  = 
ORIGINATOR     = 

OBJECT_NAME    = STARLINK-36140
OBJECT_ID      = 2025-294E
CENTER_NAME    = EARTH
REF_FRAME      = TEME
TIME_SYSTEM    = UTC
MEAN_ELEMENT_THEORY = SGP/SGP4

EPOCH          = 2025-12-25T06:00:04.000320
MEAN_MOTION    = 15.71083513
ECCENTRICITY   = .00014402
INCLINATION    = 42.9991
RA_OF_ASC_NODE = 105.6854
ARG_OF_PERICENTER = 266.5589
MEAN_ANOMALY   = 17.5953

EPHEMERIS_TYPE = 0
CLASSIFICATION_TYPE = U
NORAD_CAT_ID   = 67034
ELEMENT_SET_NO = 999
REV_AT_EPOCH   = 212
BSTAR          = -.16753734E-1
MEAN_MOTION_DOT = -.1925391E-1
MEAN_MOTION_DDOT = 0

CCSDS_OMM_VERS = 2.0
CREATION_DATE  = 
ORIGINATOR     = 

OBJECT_NAME    = STARLINK-36085
OBJECT_ID      = 2025-294F
CENTER_NAME    = EARTH
REF_FRAME      = TEME
TIME_SYSTEM    = UTC
MEAN_ELEMENT_THEORY = SGP/SGP4

EPOCH          = 2025-12-25T06:00:04.000320
MEAN_MOTION    = 15.71057596
ECCENTRICITY   = .00014101
INCLINATION    = 42.9991
RA_OF_ASC_NODE = 105.6744
ARG_OF_PERICENTER = 263.7887
MEAN_ANOMALY   = 24.6988

EPHEMERIS_TYPE = 0
CLASSIFICATION_TYPE = U
NORAD_CAT_ID   = 67035
ELEMENT_SET_NO = 999
REV_AT_EPOCH   = 212
BSTAR          = -.16780802E-1
MEAN_MOTION_DOT = -.192624E-1
MEAN_MOTION_DDOT = 0

CCSDS_OMM_VERS = 2.0
CREATION_DATE  = 
ORIGINATOR     = 

OBJECT_NAME    = STARLINK-36125
OBJECT_ID      = 2025-294G
CENTER_NAME    = EARTH
REF_FRAME      = TEME
TIME_SYSTEM    = UTC
MEAN_ELEMENT_THEORY = SGP/SGP4

EPOCH          = 2025-12-25T06:00:04.000320
MEAN_MOTION    = 15.71073880
ECCENTRICITY   = .00014257
INCLINATION    = 42.9989
RA_OF_ASC_NODE = 105.6800
ARG_OF_PERICENTER = 265.9221
MEAN_ANOMALY   = 20.3938

EPHEMERIS_TYPE = 0
CLASSIFICATION_TYPE = U
NORAD_CAT_ID   = 67036
ELEMENT_SET_NO = 999
REV_AT_EPOCH   = 231
BSTAR          = -.16807772E-1
MEAN_MOTION_DOT = -.1930179E-1
MEAN_MOTION_DDOT = 0

